1 31208U 99025BKN 16034.38512894 +.00001620 +00000-0 +66560-3 0  9998
2 31208 099.2938 230.1742 0023396 290.9741 188.7061 14.28422085188307
1 31209U 99025BKP 16031.75276714  .00001509  00000-0  78418-3 0  9996
2 31209  98.9827  20.1086 0032211 254.0977 105.6645 14.15994076455502
1 31210U 99025BKQ 16034.54853936 +.00000250 +00000-0 +17097-3 0  9993
2 31210 098.9811 062.3093 0017268 239.1782 274.9957 14.08625671452479
1 31211U 99025BKR 16035.29145947  .00000682  00000-0  40655-3 0  9998
2 31211  98.9839  74.1988 0057228 221.0098 138.6762 14.09936742455629
1 31212U 99025BKS 16036.07754721  .00001504  00000-0  10133-2 0  9993
2 31212  99.0897 345.4189 0087951  38.7561  19.3401 14.00226895451798
1 31213U 99025BKT 16035.10051541  .00003498  00000-0  14769-2 0  9990
2 31213  99.4595 241.6798 0029050 350.8043 136.3079 14.26105164455956
1 31214U 99025BKU 16034.95544881 +.00002421 +00000-0 +11235-2 0  9997
2 31214 098.9603 033.5618 0022787 177.2248 212.3672 14.21527132455679
1 31215U 99025BKV 16035.05479881  .00000925  00000-0  44818-3 0  9998
2 31215  98.8964 122.9877 0067742 222.5170 137.0748 14.19740837457953
1 31217U 99025BKX 16034.91813655 +.00000417 +00000-0 +24378-3 0  9990
2 31217 098.9585 065.2028 0107282 310.6858 048.5028 14.11034740455189
1 31218U 99025BKY 16035.16834806  .00002060  00000-0  96280-3 0  9997
2 31218  98.8826  16.5752 0036688  98.7856 261.7478 14.21079574456187
1 31219U 99025BKZ 16035.24876563  .00001513  00000-0  10354-2 0  9992
2 31219  99.0469 330.7422 0087510  51.1660 309.7274 13.99387386451375
1 31220U 99025BLA 16034.89322873  .00001599  00000-0  49944-3 0  9996
2 31220  99.0215 185.8565 0059932  86.7972  65.3339 14.41248373462122
1 31222U 99025BLC 16034.88143971 +.00003276 +00000-0 +37050-3 0  9996
2 31222 098.6559 188.9754 0268748 227.2862 130.5431 14.64561346470222
1 31223U 99025BLD 16035.24214130  .00000975  00000-0  11149-2 0  9997
2 31223  98.9991 131.1399 0274706  31.1703 330.5411 13.57090257436926
1 31224U 99025BLE 16027.96400641 +.00000265 +00000-0 +11932-3 0  9995
2 31224 098.7041 090.0590 0168268 267.6733 219.3348 14.23310530178931
1 31225U 99025BLF 16034.92284435 +.00001115 +00000-0 +69251-3 0  9993
2 31225 099.1558 027.3403 0103308 326.3426 062.0533 14.04620682451532
1 31226U 99025BLG 16034.37971772  .00000175  00000-0  90312-4 0  9998
2 31226  98.7237 101.2382 0130091 254.6226 104.0547 14.22686710459859
1 31227U 99025BLH 16034.42485520  .00002699  00000-0  12055-2 0  9995
2 31227  98.1563 106.9564 0132378 324.4662  34.7753 14.18868501454791
1 31228U 99025BLJ 16034.55873472 +.00000551 +00000-0 +22254-3 0  9995
2 31228 098.8637 147.0368 0088216 142.3919 346.5379 14.29793790460572
1 31229U 99025BLK 16034.75258345 +.00001078 +00000-0 +64369-3 0  9992
2 31229 099.1130 053.3133 0063782 010.5853 055.4257 14.08420181452769
1 31231U 99025BLM 16034.92308078 +.00002102 +00000-0 +64730-3 0  9994
2 31231 098.9831 080.4537 0310561 153.8959 332.3273 14.18318162116199
1 31232U 99025BLN 16034.26274009 +.00002669 +00000-0 +13188-2 0  9996
2 31232 099.0598 049.3338 0044569 283.2341 076.3864 14.17767288102035
1 31234U 99025BLQ 16035.31856359  .00000068  00000-0  67773-4 0  9991
2 31234  98.9970  66.7056 0075343 244.7746 114.5597 14.05395554454054
1 31235U 99025BLR 16034.89290702 +.00002064 +00000-0 +14649-2 0  9998
2 31235 098.5046 071.1809 0258794 284.9075 072.3560 13.83859890130713
1 31236U 99025BLS 16036.10110877  .00000264  00000-0  24721-3 0  9992
2 31236  98.5548 351.9881 0382193 244.5412 111.5732 13.60684304442611
1 31237U 99025BLT 16035.05327963  .00000438  00000-0  19661-3 0  9992
2 31237  98.7180  71.9269 0099067  80.5991 310.4710 14.24662653459797
1 31238U 99025BLU 16035.73428137  .00002921  00000-0  10282-2 0  9991
2 31238  98.9798 122.5525 0114411 358.7858 154.2281 14.32063473458482
1 31239U 99025BLV 16035.71684844  .00000098  00000-0  85340-4 0  9991
2 31239  98.9820  68.4328 0051178 240.0472 189.9021 14.06373618454381
1 31240U 99025BLW 16020.89295768  .00000532  00000-0  35961-3 0  9995
2 31240  99.0519  52.9703 0048302  54.7726 305.7990 14.04175389451318
1 31241U 99025BLX 16034.07448902 +.00000362 +00000-0 +15238-3 0  9997
2 31241 099.2459 263.1918 0074819 167.6676 192.6358 14.30727144461344
1 31242U 99025BLY 16031.69696939  .00004133  00000-0  88172-3 0  9995
2 31242  97.4271 349.7339 0071338 212.2189 271.3300 14.57769072469978
1 31243U 99025BLZ 16035.04340546  .00000597  00000-0  42125-3 0  9997
2 31243  99.1010 100.3877 0069159 107.5917   9.8465 14.00730759452055
1 31246U 99025BMC 16034.92128761 +.00000626 +00000-0 +46879-3 0  9992
2 31246 099.0193 301.3840 0171736 169.9332 190.5340 13.91486269115273
1 31247U 99025BMD 16035.23512779  .00000587  00000-0  42815-3 0  9996
2 31247  99.2773 135.9515 0076639 187.5818 227.2590 13.98841766451666
1 31248U 99025BME 16035.45961043  .00000262  00000-0  24211-3 0  9993
2 31248  99.3593   8.1299 0114458 253.0159 236.2572 13.88787808448499
1 31249U 99025BMF 16035.32421744  .00004610  00000-0  15805-2 0  9998
2 31249  98.9724  78.8047 0072354  41.0505 319.6093 14.35191649457718
1 31250U 99025BMG 16034.73397141 +.00000593 +00000-0 +43480-3 0  9994
2 31250 098.4660 131.9082 0141108 285.7485 072.8154 13.94784216452456
1 31252U 99025BMJ 16035.25913419  .00000600  00000-0  17777-3 0  9995
2 31252  98.7057  59.1322 0236018  58.2110 304.1827 14.32208086461853
1 31253U 99025BMK 16035.14339846  .00000171  00000-0  10142-3 0  9992
2 31253  99.1811   7.5936 0302107 279.1842  77.5267 14.00074300457583
1 31254U 99025BML 16035.49314432  .00000694  00000-0  25324-3 0  9993
2 31254  98.8302  37.3838 0166361 331.4581 180.2563 14.29046815460811
1 31255U 99025BMM 16035.70309954  .00000139  00000-0  82728-4 0  9997
2 31255  99.0748 124.8163 0284057 277.8322  79.0689 14.04784754463126
1 31256U 99025BMN 16035.01553628  .00002182  00000-0  12924-2 0  9990
2 31256  98.7288  99.7832 0405306 149.9151 212.5967 13.74364125440553
1 31257U 99025BMP 16035.75279238  .00001693  00000-0  11454-2 0  9997
2 31257  98.6795 221.6935 0127685 105.0091 256.5246 13.97694357454363
1 31258U 99025BMQ 16034.43670684 +.00002574 +00000-0 +11898-2 0  9993
2 31258 098.9340 028.4001 0022991 186.3024 329.5426 14.21660069455185
1 31259U 99025BMR 16035.85149571  .00001559  00000-0  10417-2 0  9995
2 31259  99.2178  51.2679 0073513 111.4758  11.8485 14.01236613450412
1 31260U 99025BMS 16034.77064597  .00000839  00000-0  37454-3 0  9992
2 31260  98.8998 135.8724 0052560 269.9590 242.1712 14.24762474458369
1 31261U 99025BMT 16034.58327842 +.00000896 +00000-0 +37932-3 0  9991
2 31261 099.0044 161.2692 0061422 234.9120 124.6291 14.27083938458876
1 31262U 99025BMU 16034.48443457  .00001339  00000-0  86903-3 0  9997
2 31262  99.2117  39.9677 0066362  52.9034  99.4049 14.03359760450846
1 31263U 99025BMV 16033.14178337 +.00002305 +00000-0 +10579-2 0  9991
2 31263 099.0164 104.7496 0046695 275.9530 083.6326 14.21721289454905
1 31264U 99025BMW 16034.12153161  .00000317  00000-0  19288-3 0  9997
2 31264  99.0743 141.8170 0000975 183.1957 298.4133 14.13468913455315
1 31266U 99025BMY 16034.20826654  .00000187  00000-0  10335-3 0  9991
2 31266  99.2325 186.3260 0137502  55.0064  68.0207 14.18461015461256
1 31267U 99025BMZ 16025.68426569 +.00002258 +00000-0 +54324-3 0  9992
2 31267 099.3083 340.6638 0123203 115.1360 246.2671 14.49949445124087
1 31268U 99025BNA 16027.37199674  .00000373  00000-0  27693-3 0  9990
2 31268  99.1021  91.8051 0058391 134.1408 226.4580 14.00549238454179
1 31269U 99025BNB 16035.69764770  .00001534  00000-0  48790-3 0  9991
2 31269  98.2442 116.9791 0339176  13.7775 143.8285 14.13126885455953
1 31270U 99025BNC 16035.53939906  .00001970  00000-0  44274-3 0  9998
2 31270  99.0357 248.6800 0137896 329.4120  29.9083 14.52120615468344
1 31272U 99025BNE 16034.74486786 +.00000489 +00000-0 +25125-3 0  9993
2 31272 098.9735 132.4435 0114624 263.1505 251.4526 14.16673293459544
1 31273U 99025BNF 16034.23970731 +.00003004 +00000-0 +10105-2 0  9993
2 31273 098.3816 286.3233 0072847 297.4280 189.4188 14.36332316462676
1 31274U 99025BNG 16034.95796591 +.00001200 +00000-0 +94943-3 0  9992
2 31274 099.1816 298.1506 0260310 010.9878 048.0124 13.78771402445135
1 31275U 99025BNH 16034.82296435 +.00000829 +00000-0 +61299-3 0  9995
2 31275 099.2845 052.2718 0111511 138.6949 222.2713 13.95333460452065
1 31279U 99025BNM 16034.29678419 +.00000438 +00000-0 +21913-3 0  9991
2 31279 098.8321 062.7311 0080580 157.7438 261.9706 14.20106724460672
1 31280U 99025BNN 16034.88656432  .00022999  00000-0  22016-2 0  9999
2 31280  97.9738 262.6631 0101192 344.6766  79.7878 14.89350790469275
1 31281U 99025BNP 16035.33730866  .00002569  00000-0  33470-3 0  9993
2 31281  98.4132 346.4133 0271306 259.2354 257.1617 14.59108728469404
1 31282U 99025BNQ 16034.75972451 +.00000329 +00000-0 +11001-3 0  9995
2 31282 099.2224 328.5930 0135187 041.3454 319.7871 14.39835285452827
1 31284U 99025BNS 16034.40922779  .00000349  00000-0  28225-3 0  9995
2 31284  99.8069 238.3864 0151355 315.1741 165.0976 13.92578136451501
1 31285U 99025BNT 16035.35573096  .00000184  00000-0  83896-4 0  9998
2 31285  98.6827  81.8271 0208238 239.1042 181.4958 14.22302614461790
1 31286U 99025BNU 16033.55322228  .00001252  00000-0  86015-3 0  9990
2 31286 100.8467 250.2457 0117562 318.9974  40.2389 13.98714917451079
1 31287U 99025BNV 16034.40022406 +.00001121 +00000-0 +64958-3 0  9998
2 31287 099.4381 199.4117 0033928 054.6181 305.8149 14.10826354457548
1 31288U 99025BNW 16035.55802117  .00001805  00000-0  74964-3 0  9998
2 31288  98.8647  69.9401 0062020 148.6637   5.8961 14.26685444458853
1 31289U 99025BNX 16035.40319631  .00007244  00000-0  28227-3 0  9991
2 31289  97.4931 252.0073 0232508  72.5204 290.1289 15.04701131482409
1 31290U 99025BNY 16035.47208627  .00004932  00000-0  15269-2 0  9994
2 31290 101.9394 140.4782 0113093 217.0349 206.2420 14.38319267464085
1 31291U 99025BNZ 16035.79953324  .00003834  00000-0  12264-2 0  9993
2 31291  98.5428 327.6476 0077431 309.6898  74.4087 14.38486070462669
